TQ3G_L_00002001-01
1 58930U 25236JU  26070.40854167  .00000000  00000+0  00000-0 0  9992
2 58930  70.0000   0.0000 0000000   0.0000   0.0000 14.79785908    13
TQ3G_L_00002001-02
1 58931U 23941QL  26070.40854167  .00000000  00000+0  00000-0 0  9994
2 58931  70.0000   0.0000 0000000   0.0000 120.0000 14.79785908    17
TQ3G_L_00002001-03
1 58932U 22401GE  26070.40854167  .00000000  00000+0  00000-0 0  9995
2 58932  70.0000   0.0000 0000000   0.0000 240.0000 14.79785908    11
TQ3G_L_00002002-01
1 58933U 22991QV  26070.40854167  .00000000  00000+0  00000-0 0  9990
2 58933  70.0000  15.0000 0000000   0.0000  20.0000 14.79785908    14
TQ3G_L_00002002-02
1 58934U 22237YM  26070.40854167  .00000000  00000+0  00000-0 0  9994
2 58934  70.0000  15.0000 0000000   0.0000 140.0000 14.79785908    18
TQ3G_L_00002002-03
1 58935U 25729HD  26070.40854167  .00000000  00000+0  00000-0 0  9994
2 58935  70.0000  15.0000 0000000   0.0000 260.0000 14.79785908    12
TQ3G_L_00002003-01
1 58936U 26416FT  26070.40854167  .00000000  00000+0  00000-0 0  9999
2 58936  70.0000  30.0000 0000000   0.0000  40.0000 14.79785908    16
TQ3G_L_00002003-02
1 58937U 22215IX  26070.40854167  .00000000  00000+0  00000-0 0  9993
2 58937  70.0000  30.0000 0000000   0.0000 160.0000 14.79785908    10
TQ3G_L_00002003-03
1 58938U 22331AJ  26070.40854167  .00000000  00000+0  00000-0 0  9993
2 58938  70.0000  30.0000 0000000   0.0000 280.0000 14.79785908    14
TQ3G_L_00002004-01
1 58939U 24027TH  26070.40854167  .00000000  00000+0  00000-0 0  9998
2 58939  70.0000  45.0000 0000000   0.0000  60.0000 14.79785908    17
TQ3G_L_00002004-02
1 58940U 22018PQ  26070.40854167  .00000000  00000+0  00000-0 0  9998
2 58940  70.0000  45.0000 0000000   0.0000 180.0000 14.79785908    12
TQ3G_L_00002004-03
1 58941U 25464OH  26070.40854167  .00000000  00000+0  00000-0 0  9997
2 58941  70.0000  45.0000 0000000   0.0000 300.0000 14.79785908    17
TQ3G_L_00002005-01
1 58942U 22703XK  26070.40854167  .00000000  00000+0  00000-0 0  9991
2 58942  70.0000  60.0000 0000000   0.0000  80.0000 14.79785908    10
TQ3G_L_00002005-02
1 58943U 23633GC  26070.40854167  .00000000  00000+0  00000-0 0  9995
2 58943  70.0000  60.0000 0000000   0.0000 200.0000 14.79785908    15
TQ3G_L_00002005-03
1 58944U 23080MP  26070.40854167  .00000000  00000+0  00000-0 0  9992
2 58944  70.0000  60.0000 0000000   0.0000 320.0000 14.79785908    19
TQ3G_L_00002006-01
1 58945U 23612PA  26070.40854167  .00000000  00000+0  00000-0 0  9994
2 58945  70.0000  75.0000 0000000   0.0000 100.0000 14.79785908    12
TQ3G_L_00002006-02
1 58946U 22305CP  26070.40854167  .00000000  00000+0  00000-0 0  9993
2 58946  70.0000  75.0000 0000000   0.0000 220.0000 14.79785908    16
TQ3G_L_00002006-03
1 58947U 25474FN  26070.40854167  .00000000  00000+0  00000-0 0  9994
2 58947  70.0000  75.0000 0000000   0.0000 340.0000 14.79785908    10
TQ3G_L_00002007-01
1 58948U 23201BC  26070.40854167  .00000000  00000+0  00000-0 0  9991
2 58948  70.0000  90.0000 0000000   0.0000 120.0000 14.79785908    14
TQ3G_L_00002007-02
1 58949U 22099Z   26070.40854167  .00000000  00000+0  00000-0 0  9996
2 58949  70.0000  90.0000 0000000   0.0000 240.0000 14.79785908    18
TQ3G_L_00002007-03
1 58950U 23371LH  26070.40854167  .00000000  00000+0  00000-0 0  9992
2 58950  70.0000  90.0000 0000000   0.0000   0.0000 14.79785908    14
TQ3G_L_00002008-01
1 58951U 25231AC  26070.40854167  .00000000  00000+0  00000-0 0  9990
2 58951  70.0000 105.0000 0000000   0.0000 140.0000 14.79785908    17
TQ3G_L_00002008-02
1 58952U 26321KN  26070.40854167  .00000000  00000+0  00000-0 0  9992
2 58952  70.0000 105.0000 0000000   0.0000 260.0000 14.79785908    11
TQ3G_L_00002008-03
1 58953U 23607ZB  26070.40854167  .00000000  00000+0  00000-0 0  9997
2 58953  70.0000 105.0000 0000000   0.0000  20.0000 14.79785908    16
TQ3G_L_00002009-01
1 58954U 23299DI  26070.40854167  .00000000  00000+0  00000-0 0  9995
2 58954  70.0000 120.0000 0000000   0.0000 160.0000 14.79785908    19
TQ3G_L_00002009-02
1 58955U 26720UK  26070.40854167  .00000000  00000+0  00000-0 0  9998
2 58955  70.0000 120.0000 0000000   0.0000 280.0000 14.79785908    13
TQ3G_L_00002009-03
1 58956U 22730OT  26070.40854167  .00000000  00000+0  00000-0 0  9996
2 58956  70.0000 120.0000 0000000   0.0000  40.0000 14.79785908    18
TQ3G_L_00002010-01
1 58957U 22939FW  26070.40854167  .00000000  00000+0  00000-0 0  9998
2 58957  70.0000 135.0000 0000000   0.0000 180.0000 14.79785908    10
TQ3G_L_00002010-02
1 58958U 23329LP  26070.40854167  .00000000  00000+0  00000-0 0  9993
2 58958  70.0000 135.0000 0000000   0.0000 300.0000 14.79785908    15
TQ3G_L_00002010-03
1 58959U 23564YI  26070.40854167  .00000000  00000+0  00000-0 0  9995
2 58959  70.0000 135.0000 0000000   0.0000  60.0000 14.79785908    19
TQ3G_L_00002011-01
1 58960U 22425HO  26070.40854167  .00000000  00000+0  00000-0 0  9992
2 58960  70.0000 150.0000 0000000   0.0000 200.0000 14.79785908    14
TQ3G_L_00002011-02
1 58961U 25275SE  26070.40854167  .00000000  00000+0  00000-0 0  9999
2 58961  70.0000 150.0000 0000000   0.0000 320.0000 14.79785908    18
TQ3G_L_00002011-03
1 58962U 25946JX  26070.40854167  .00000000  00000+0  00000-0 0  9995
2 58962  70.0000 150.0000 0000000   0.0000  80.0000 14.79785908    12
TQ3G_L_00002012-01
1 58963U 22323JW  26070.40854167  .00000000  00000+0  00000-0 0  9992
2 58963  70.0000 165.0000 0000000   0.0000 220.0000 14.79785908    15
TQ3G_L_00002012-02
1 58964U 26608TK  26070.40854167  .00000000  00000+0  00000-0 0  9993
2 58964  70.0000 165.0000 0000000   0.0000 340.0000 14.79785908    19
TQ3G_L_00002012-03
1 58965U 22731BB  26070.40854167  .00000000  00000+0  00000-0 0  9997
2 58965  70.0000 165.0000 0000000   0.0000 100.0000 14.79785908    14
TQ3G_L_00002013-01
1 58966U 25018BS  26070.40854167  .00000000  00000+0  00000-0 0  9999
2 58966  70.0000 180.0000 0000000   0.0000 240.0000 14.79785908    17
TQ3G_L_00002013-02
1 58967U 25521VF  26070.40854167  .00000000  00000+0  00000-0 0  9999
2 58967  70.0000 180.0000 0000000   0.0000   0.0000 14.79785908    12
TQ3G_L_00002013-03
1 58968U 25264GB  26070.40854167  .00000000  00000+0  00000-0 0  9994
2 58968  70.0000 180.0000 0000000   0.0000 120.0000 14.79785908    16
TQ3G_L_00002014-01
1 58969U 25561IR  26070.40854167  .00000000  00000+0  00000-0 0  9995
2 58969  70.0000 195.0000 0000000   0.0000 260.0000 14.79785908    18
TQ3G_L_00002014-02
1 58970U 25909UN  26070.40854167  .00000000  00000+0  00000-0 0  9993
2 58970  70.0000 195.0000 0000000   0.0000  20.0000 14.79785908    14
TQ3G_L_00002014-03
1 58971U 26135OW  26070.40854167  .00000000  00000+0  00000-0 0  9996
2 58971  70.0000 195.0000 0000000   0.0000 140.0000 14.79785908    18
TQ3G_L_00002015-01
1 58972U 26300LK  26070.40854167  .00000000  00000+0  00000-0 0  9991
2 58972  70.0000 210.0000 0000000   0.0000 280.0000 14.79785908    12
TQ3G_L_00002015-02
1 58973U 23072NQ  26070.40854167  .00000000  00000+0  00000-0 0  9995
2 58973  70.0000 210.0000 0000000   0.0000  40.0000 14.79785908    17
TQ3G_L_00002015-03
1 58974U 22914B   26070.40854167  .00000000  00000+0  00000-0 0  9990
2 58974  70.0000 210.0000 0000000   0.0000 160.0000 14.79785908    11
TQ3G_L_00002016-01
1 58975U 26028GN  26070.40854167  .00000000  00000+0  00000-0 0  9991
2 58975  70.0000 225.0000 0000000   0.0000 300.0000 14.79785908    14
TQ3G_L_00002016-02
1 58976U 22819NH  26070.40854167  .00000000  00000+0  00000-0 0  9996
2 58976  70.0000 225.0000 0000000   0.0000  60.0000 14.79785908    18
TQ3G_L_00002016-03
1 58977U 25005JZ  26070.40854167  .00000000  00000+0  00000-0 0  9997
2 58977  70.0000 225.0000 0000000   0.0000 180.0000 14.79785908    12
TQ3G_L_00002017-01
1 58978U 25951GP  26070.40854167  .00000000  00000+0  00000-0 0  9998
2 58978  70.0000 240.0000 0000000   0.0000 320.0000 14.79785908    16
TQ3G_L_00002017-02
1 58979U 25854ZK  26070.40854167  .00000000  00000+0  00000-0 0  9991
2 58979  70.0000 240.0000 0000000   0.0000  80.0000 14.79785908    10
TQ3G_L_00002017-03
1 58980U 24877DY  26070.40854167  .00000000  00000+0  00000-0 0  9997
2 58980  70.0000 240.0000 0000000   0.0000 200.0000 14.79785908    16
TQ3G_L_00002018-01
1 58981U 25059CL  26070.40854167  .00000000  00000+0  00000-0 0  9991
2 58981  70.0000 255.0000 0000000   0.0000 340.0000 14.79785908    18
TQ3G_L_00002018-02
1 58982U 22380WR  26070.40854167  .00000000  00000+0  00000-0 0  9996
2 58982  70.0000 255.0000 0000000   0.0000 100.0000 14.79785908    13
TQ3G_L_00002018-03
1 58983U 25184PC  26070.40854167  .00000000  00000+0  00000-0 0  9992
2 58983  70.0000 255.0000 0000000   0.0000 220.0000 14.79785908    17
TQ3G_L_00002019-01
1 58984U 23611XY  26070.40854167  .00000000  00000+0  00000-0 0  9996
2 58984  70.0000 270.0000 0000000   0.0000   0.0000 14.79785908    11
TQ3G_L_00002019-02
1 58985U 26957EZ  26070.40854167  .00000000  00000+0  00000-0 0  9993
2 58985  70.0000 270.0000 0000000   0.0000 120.0000 14.79785908    15
TQ3G_L_00002019-03
1 58986U 22784A   26070.40854167  .00000000  00000+0  00000-0 0  9998
2 58986  70.0000 270.0000 0000000   0.0000 240.0000 14.79785908    19
TQ3G_L_00002020-01
1 58987U 23011FM  26070.40854167  .00000000  00000+0  00000-0 0  9993
2 58987  70.0000 285.0000 0000000   0.0000  20.0000 14.79785908    12
TQ3G_L_00002020-02
1 58988U 26570SV  26070.40854167  .00000000  00000+0  00000-0 0  9997
2 58988  70.0000 285.0000 0000000   0.0000 140.0000 14.79785908    16
TQ3G_L_00002020-03
1 58989U 22305YB  26070.40854167  .00000000  00000+0  00000-0 0  9990
2 58989  70.0000 285.0000 0000000   0.0000 260.0000 14.79785908    10
TQ3G_L_00002021-01
1 58990U 26219LK  26070.40854167  .00000000  00000+0  00000-0 0  9990
2 58990  70.0000 300.0000 0000000   0.0000  40.0000 14.79785908    16
TQ3G_L_00002021-02
1 58991U 24169AP  26070.40854167  .00000000  00000+0  00000-0 0  9993
2 58991  70.0000 300.0000 0000000   0.0000 160.0000 14.79785908    10
TQ3G_L_00002021-03
1 58992U 26974UK  26070.40854167  .00000000  00000+0  00000-0 0  9990
2 58992  70.0000 300.0000 0000000   0.0000 280.0000 14.79785908    14
TQ3G_L_00002022-01
1 58993U 24653AY  26070.40854167  .00000000  00000+0  00000-0 0  9993
2 58993  70.0000 315.0000 0000000   0.0000  60.0000 14.79785908    17
TQ3G_L_00002022-02
1 58994U 26985QZ  26070.40854167  .00000000  00000+0  00000-0 0  9994
2 58994  70.0000 315.0000 0000000   0.0000 180.0000 14.79785908    11
TQ3G_L_00002022-03
1 58995U 24374BO  26070.40854167  .00000000  00000+0  00000-0 0  9995
2 58995  70.0000 315.0000 0000000   0.0000 300.0000 14.79785908    16
TQ3G_L_00002023-01
1 58996U 25499KH  26070.40854167  .00000000  00000+0  00000-0 0  9995
2 58996  70.0000 330.0000 0000000   0.0000  80.0000 14.79785908    19
TQ3G_L_00002023-02
1 58997U 23497SY  26070.40854167  .00000000  00000+0  00000-0 0  9992
2 58997  70.0000 330.0000 0000000   0.0000 200.0000 14.79785908    14
TQ3G_L_00002023-03
1 58998U 23525BS  26070.40854167  .00000000  00000+0  00000-0 0  9995
2 58998  70.0000 330.0000 0000000   0.0000 320.0000 14.79785908    18
TQ3G_L_00002024-01
1 58999U 23529LP  26070.40854167  .00000000  00000+0  00000-0 0  9990
2 58999  70.0000 345.0000 0000000   0.0000 100.0000 14.79785908    11
TQ3G_L_00002024-02
1 59000U 24669QN  26070.40854167  .00000000  00000+0  00000-0 0  9990
2 59000  70.0000 345.0000 0000000   0.0000 220.0000 14.79785908    18
TQ3G_L_00002024-03
1 59001U 25607RL  26070.40854167  .00000000  00000+0  00000-0 0  9994
2 59001  70.0000 345.0000 0000000   0.0000 340.0000 14.79785908    12
